FLOCK 2P-4              
1 41611U 16040N   17275.42397330  .00004676  00000-0  20227-3 0  9996
2 41611  97.4518 337.4157 0012665  72.3618 287.9000 15.22866738 70984
FLOCK 2P-10             
1 41612U 16040P   17275.40200124  .00006197  00000-0  26701-3 0  9992
2 41612  97.4522 337.4730 0012398  72.3794 287.8795 15.22872877 70986
FLOCK 2P-8              
1 41613U 16040Q   17275.41844274  .00005898  00000-0  25431-3 0  9990
2 41613  97.4521 337.4285 0012552  71.2106 289.0491 15.22864897 70988
FLOCK 2P-12             
1 41614U 16040R   17275.18293326  .00005959  00000-0  25703-3 0  9991
2 41614  97.4531 337.3437 0012281  72.6266 287.6312 15.22851754 70950
FLOCK 2P-7              
1 41615U 16040S   17275.41282005  .00003429  00000-0  14926-3 0  9995
2 41615  97.4518 337.4195 0012363  72.4522 287.8064 15.22847938 70980
FLOCK 2P-5              
1 41616U 16040T   17275.39108385  .00005358  00000-0  23140-3 0  9992
2 41616  97.4530 337.5241 0012249  71.2671 288.9894 15.22858250 70963
FLOCK 2P-1              
1 41617U 16040U   17275.18228352  .00010693  00000-0  45835-3 0  9990
2 41617  97.4534 337.3463 0011938  72.9828 287.2716 15.22871151 70957
FLOCK 2P-3              
1 41618U 16040V   17275.40753751  .00005947  00000-0  25639-3 0  9998
2 41618  97.4531 337.4963 0012130  71.9800 288.2757 15.22873389 70989
BEESAT-4                
1 41619U 16040W   17275.16816252  .00003582  00000-0  16341-3 0  9991
2 41619  97.4521 336.4827 0013297  59.2105 301.0438 15.21196003 58851
3CAT-2                  
1 41732U 16051B   17275.53394572  .00003877  00000-0  15676-3 0  9993
2 41732  97.3709 190.9208 0012036 253.4362 214.2034 15.25261208 62893
FLOCK 2E'-13            
1 41761U 98067KH  17275.20337562  .00020720  00000-0  22693-3 0  9995
2 41761  51.6369 211.0558 0004910 312.2301  47.8276 15.63228822 59635
FLOCK 2E'-14            
1 41762U 98067KJ  17275.23610896  .00022999  00000-0  24744-3 0  9992
2 41762  51.6379 210.5600 0004516 313.9935  46.0687 15.63615760 59641
FLOCK 2E'-16            
1 41763U 98067KK  17275.23648516  .00025543  00000-0  26769-3 0  9990
2 41763  51.6381 209.8094 0004132 329.8691  30.2066 15.64220871 59611
FLOCK 2E'-15            
1 41764U 98067KL  17275.41334287  .00018930  00000-0  20874-3 0  9991
2 41764  51.6377 210.2379 0004654 321.3078  38.7582 15.63123367 59622
FLOCK 2E'-18            
1 41769U 98067KM  17275.39580359  .00018356  00000-0  20220-3 0  9993
2 41769  51.6377 210.1141 0004146 351.0545   9.0375 15.63176982 59620
FLOCK 2E'-17            
1 41776U 98067KN  17275.19063581  .00022731  00000-0  24754-3 0  9990
2 41776  51.6385 211.0218 0004485 351.1717   8.9198 15.63313437 59584
FLOCK 2E'-19            
1 41777U 98067KP  17275.29976143  .00034737  00000-0  32465-3 0  9996
2 41777  51.6358 205.6776 0003096 359.2603   0.8388 15.66932119 59627
FLOCK 2E'-20            
1 41782U 98067KQ  17275.29299821  .00032107  00000-0  31343-3 0  9996
2 41782  51.6370 207.1746 0003172 356.8229   3.2746 15.65885804 59478
CANX-7                  
1 41788U 16059F   17275.49718270  .00012354  00000-0  22473-2 0  9994
2 41788  98.1855 336.7001 0036007 187.4764 172.5857 14.65833036 54305
ALSAT 1N                
1 41789U 16059G   17273.67223976 -.00000048  00000-0  20983-6 0  9993
2 41789  98.1565 334.5978 0028730 180.4198 179.6976 14.64080625 54049
RAVAN                   
1 41849U 16067B   17275.23172003  .00002172  00000-0  19292-3 0  9994
2 41849  97.9424 355.0506 0007053 306.9323  53.1252 14.97226470 48527
CELTEE 1                
1 41850U 16067C   17275.17219339  .00001153  00000-0  10646-3 0  9995
2 41850  97.9425 354.8098 0007384 308.3520  51.7036 14.96636865 48509
OPTICUBE 04             
1 41851U 16067D   17275.18327962  .00000656  00000-0  63043-4 0  9996
2 41851  97.9426 354.7942 0007613 311.1338  48.9225 14.96547747 48500
AEROCUBE 8D             
1 41852U 16067E   17275.18386185  .00000899  00000-0  84879-4 0  9998
2 41852  97.9439 354.6805 0008406 309.5506  50.4971 14.96293492 48490
AEROCUBE 8C             
1 41853U 16067F   17275.19181331  .00000447  00000-0  44985-4 0  9999
2 41853  97.9438 354.6683 0008934 310.5023  49.5418 14.96256989 48491
PROMETHEUS 2-1          
1 41854U 16067G   17275.20826124  .00000614  00000-0  59735-4 0  9993
2 41854  97.9435 354.6537 0009438 308.4260  51.6113 14.96251969 48495
PROMETHEUS 2-3          
1 41855U 16067H   17275.27707938  .00000706  00000-0  67877-4 0  9990
2 41855  97.9437 354.7235 0009603 308.1959  51.8396 14.96244896 48508
LEMUR-2-XIAOQING        
1 41871U 16062C   17275.45573537  .00004985  00000-0  22334-3 0  9990
2 41871  51.6427 297.3035 0004081 251.8423 249.3986 15.22938828 47285
LEMUR-2-SOKOLSKY        
1 41872U 16062D   17275.44040494  .00005269  00000-0  23482-3 0  9992
2 41872  51.6664 297.1589 0004363 267.7800 232.3586 15.23003811 47272
LEMUR-2-ANUBHAVTHAKUR   
1 41873U 16062E   17275.50264988  .00003497  00000-0  16624-3 0  9997
2 41873  51.6410 298.2018 0004643 260.1632 252.8978 15.21804408 47251
LEMUR-2-WINGO           
1 41874U 16062F   17275.49041883  .00005667  00000-0  25474-3 0  9997
2 41874  51.6315 297.3744 0006218 226.2095 283.0879 15.22557296 47277
STARS-C                 
1 41895U 98067KR  17274.94931037  .00073022  00000-0  61406-3 0  9998
2 41895  51.6350 213.1002 0003345  46.7470 313.3806 15.69198492 44704
TANCREDO-1              
1 41931U 98067KT  17275.15490909  .00473264  97785-4  13986-2 0  9992
2 41931  51.6269 200.8276 0003216 173.4350 186.6699 15.92016227 40452
ITF-2                   
1 41932U 98067KU  17275.07919874  .00033061  00000-0  36326-3 0  9992
2 41932  51.6390 217.0292 0003361 322.3721  37.7038 15.62868142 40231
WASEDA-SAT3             
1 41933U 98067KV  17275.19421486  .00038468  00000-0  40239-3 0  9997
2 41933  51.6369 215.5139 0003070 328.6032  31.4779 15.64051222 40263
AOBA-VELOX 3            
1 41935U 98067KX  17275.10107491  .00037944  00000-0  40388-3 0  9990
2 41935  51.6384 216.4164 0002775 331.4335  28.6507 15.63615196 40340
OSNSAT                  
1 41939U 98067KZ  17275.08220432  .00102327  00000-0  72796-3 0  9998
2 41939  51.6344 209.4672 0001589 347.7230  12.3730 15.73053216 39685
FLOCK 3P-8              
1 41951U 17008D   17274.89161299  .00008341  00000-0  35540-3 0  9998
2 41951  97.4856 335.8895 0008825 167.6861 192.4592 15.23179792 34779
FLOCK 3P-51             
1 41952U 17008E   17275.45318042  .00003263  00000-0  14100-3 0  9999
2 41952  97.4861 336.5368 0008330 183.5288 176.5891 15.23180855 34856
FLOCK 3P-37             
1 41953U 17008F   17275.20467517  .00005584  00000-0  23602-3 0  9990
2 41953  97.4861 336.4005 0007505 188.6317 171.4791 15.23619857 34825
INS-1B                  
1 41954U 17008G   17274.91625606  .00003547  00000-0  15769-3 0  9995
2 41954  97.4832 335.6402 0009988 169.2431 190.9021 15.22131293 34706
FLOCK 3P-19             
1 41955U 17008H   17275.43254626  .00004383  00000-0  18816-3 0  9999
2 41955  97.4850 336.3809 0009741 166.7938 193.3556 15.23199080 34773
FLOCK 3P-24             
1 41956U 17008J   17274.90396586  .00006616  00000-0  28241-3 0  9997
2 41956  97.4850 335.8600 0009659 165.9643 194.1864 15.23192654 34770
FLOCK 3P-18             
1 41957U 17008K   17275.43033807  .00008574  00000-0  36460-3 0  9998
2 41957  97.4851 336.3867 0009702 165.7447 194.4066 15.23229571 34699
FLOCK 3P-22             
1 41958U 17008L   17275.17389932  .00008999  00000-0  38229-3 0  9999
2 41958  97.4853 336.1182 0009436 166.6175 193.5313 15.23252147 34647
FLOCK 3P-21             
1 41959U 17008M   17274.89947316  .00010323  00000-0  43912-3 0  9993
2 41959  97.4859 335.8846 0009236 169.0626 191.0814 15.23168255 34615
FLOCK 3P-28             
1 41960U 17008N   17274.89775220  .00005101  00000-0  21867-3 0  9991
2 41960  97.4856 335.8819 0009143 167.3327 192.8141 15.23168538 34694
FLOCK 3P-26             
1 41961U 17008P   17274.90658922  .00008815  00000-0  37536-3 0  9998
2 41961  97.4855 335.8679 0009375 166.5659 193.5829 15.23180336 34617
FLOCK 3P-17             
1 41962U 17008Q   17274.88726746  .00005803  00000-0  24842-3 0  9996
2 41962  97.4856 335.8947 0009075 169.4447 190.6981 15.23156372 34565
FLOCK 3P-27             
1 41963U 17008R   17274.91516473  .00008989  00000-0  38267-3 0  9999
2 41963  97.4855 335.8591 0009512 167.3605 192.7871 15.23180593 34618
FLOCK 3P-25             
1 41964U 17008S   17274.90049465  .00006523  00000-0  27849-3 0  9997
2 41964  97.4854 335.8725 0009108 167.3679 192.7788 15.23199926 34593
FLOCK 3P-4              
1 41965U 17008T   17274.89474508  .00006045  00000-0  25867-3 0  9993
2 41965  97.4856 335.8878 0008989 168.4942 191.6502 15.23153980 34699
FLOCK 3P-2              
1 41966U 17008U   17275.15849310  .00003454  00000-0  14914-3 0  9993
2 41966  97.4857 336.1534 0008953 165.9560 194.1927 15.23153260 34659
FLOCK 3P-1              
1 41967U 17008V   17274.91233260  .00005843  00000-0  25172-3 0  9990
2 41967  97.4861 335.8736 0009070 168.6295 191.5149 15.22936422 34612
FLOCK 3P-3              
1 41968U 17008W   17275.48979096  .00006212  00000-0  26552-3 0  9992
2 41968  97.4856 336.4707 0009084 165.3207 194.8295 15.23177614 34781
FLOCK 3P-6              
1 41969U 17008X   17275.48451094  .00002504  00000-0  10890-3 0  9994
2 41969  97.4857 336.4848 0008902 164.7408 195.4099 15.23178546 34697
FLOCK 3P-7              
1 41970U 17008Y   17275.20356639  .00002829  00000-0  12254-3 0  9991
2 41970  97.4858 336.2482 0008838 168.8360 191.3074 15.23207021 34657
FLOCK 3P-5              
1 41971U 17008Z   17274.89020216  .00005069  00000-0  21739-3 0  9992
2 41971  97.4861 335.9049 0008808 169.5555 190.5867 15.23163161 34543
FLOCK 3P-12             
1 41972U 17008AA  17274.88862681  .00007771  00000-0  33191-3 0  9999
2 41972  97.4860 335.9056 0008616 169.3539 190.7882 15.23121537 34694
